<?xml version="1.0" ?><gpx xmlns="http://www.topografix.com/GPX/1/1" creator="GaiaGPS" version="1.1" xmlns:xsi="http://www.w3.org/2001/XMLSchema-instance" xsi:schemaLocation="http://www.topografix.com/GPX/1/1 http://www.topografix.com/GPX/1/1/gpx.xsd"><trk><name>Новый путь 09.11.2023 20:05:30</name><desc>Пример для ЛР N1</desc><extensions><line xmlns="http://www.topografix.com/GPX/gpx_style/0/2"><color>00B2FF</color></line></extensions><trkseg><trkpt lat="54.715162" lon="55.952183"><ele>131.66900634765625</ele><time>2023-11-09T15:05:31Z</time></trkpt><trkpt lat="54.715162" lon="55.952184"><ele>138.7041015625</ele><time>2023-11-09T15:05:40Z</time></trkpt><trkpt lat="54.715162" lon="55.952184"><ele>138.7054443359375</ele><time>2023-11-09T15:05:41Z</time></trkpt><trkpt lat="54.715143" lon="55.952194"><ele>138.2889404296875</ele><time>2023-11-09T15:05:46Z</time></trkpt><trkpt lat="54.71512" lon="55.952183"><ele>138.63189697265625</ele><time>2023-11-09T15:05:48Z</time></trkpt><trkpt lat="54.715013" lon="55.95211"><ele>138.225341796875</ele><time>2023-11-09T15:05:59Z</time></trkpt><trkpt lat="54.715002" lon="55.952104"><ele>138.45263671875</ele><time>2023-11-09T15:06:00Z</time></trkpt><trkpt lat="54.714818" lon="55.951962"><ele>137.41204833984375</ele><time>2023-11-09T15:06:16Z</time></trkpt><trkpt lat="54.714809" lon="55.951957"><ele>137.671142578125</ele><time>2023-11-09T15:06:17Z</time></trkpt><trkpt lat="54.71476" lon="55.951917"><ele>137.1092529296875</ele><time>2023-11-09T15:06:22Z</time></trkpt><trkpt lat="54.714628" lon="55.951851"><ele>137.30169677734375</ele><time>2023-11-09T15:06:33Z</time></trkpt><trkpt lat="54.714618" lon="55.951844"><ele>136.98980712890625</ele><time>2023-11-09T15:06:34Z</time></trkpt><trkpt lat="54.714589" lon="55.951814"><ele>136.414794921875</ele><time>2023-11-09T15:06:37Z</time></trkpt><trkpt lat="54.714445" lon="55.95174"><ele>136.673828125</ele><time>2023-11-09T15:06:49Z</time></trkpt><trkpt lat="54.714436" lon="55.951733"><ele>136.25885009765625</ele><time>2023-11-09T15:06:50Z</time></trkpt><trkpt lat="54.714386" lon="55.951692"><ele>136.74560546875</ele><time>2023-11-09T15:06:55Z</time></trkpt><trkpt lat="54.714315" lon="55.951662"><ele>135.280517578125</ele><time>2023-11-09T15:07:01Z</time></trkpt><trkpt lat="54.714258" lon="55.95162"><ele>134.56134033203125</ele><time>2023-11-09T15:07:06Z</time></trkpt><trkpt lat="54.714247" lon="55.951614"><ele>134.60968017578125</ele><time>2023-11-09T15:07:07Z</time></trkpt><trkpt lat="54.714104" lon="55.951522"><ele>136.1639404296875</ele><time>2023-11-09T15:07:19Z</time></trkpt><trkpt lat="54.71409" lon="55.951513"><ele>136.606201171875</ele><time>2023-11-09T15:07:20Z</time></trkpt><trkpt lat="54.713914" lon="55.951394"><ele>135.39483642578125</ele><time>2023-11-09T15:07:35Z</time></trkpt><trkpt lat="54.713903" lon="55.951387"><ele>135.27117919921875</ele><time>2023-11-09T15:07:36Z</time></trkpt><trkpt lat="54.713762" lon="55.951272"><ele>133.76397705078125</ele><time>2023-11-09T15:07:49Z</time></trkpt><trkpt lat="54.713726" lon="55.951257"><ele>132.77239990234375</ele><time>2023-11-09T15:07:52Z</time></trkpt><trkpt lat="54.713714" lon="55.951249"><ele>132.32403564453125</ele><time>2023-11-09T15:07:53Z</time></trkpt><trkpt lat="54.713546" lon="55.951136"><ele>131.235107421875</ele><time>2023-11-09T15:08:07Z</time></trkpt><trkpt lat="54.713534" lon="55.951128"><ele>131.2015380859375</ele><time>2023-11-09T15:08:08Z</time></trkpt><trkpt lat="54.713417" lon="55.951036"><ele>131.04705810546875</ele><time>2023-11-09T15:08:17Z</time></trkpt><trkpt lat="54.713405" lon="55.951025"><ele>130.9080810546875</ele><time>2023-11-09T15:08:18Z</time></trkpt><trkpt lat="54.713254" lon="55.950924"><ele>131.4822998046875</ele><time>2023-11-09T15:08:31Z</time></trkpt><trkpt lat="54.71324" lon="55.950917"><ele>131.416259765625</ele><time>2023-11-09T15:08:32Z</time></trkpt><trkpt lat="54.713074" lon="55.950796"><ele>130.14483642578125</ele><time>2023-11-09T15:08:47Z</time></trkpt><trkpt lat="54.713065" lon="55.950791"><ele>130.13739013671875</ele><time>2023-11-09T15:08:48Z</time></trkpt><trkpt lat="54.712889" lon="55.950674"><ele>127.56878662109375</ele><time>2023-11-09T15:09:03Z</time></trkpt><trkpt lat="54.712876" lon="55.950667"><ele>127.42919921875</ele><time>2023-11-09T15:09:04Z</time></trkpt><trkpt lat="54.712816" lon="55.950639"><ele>126.93115234375</ele><time>2023-11-09T15:09:09Z</time></trkpt><trkpt lat="54.712682" lon="55.950623"><ele>126.790771484375</ele><time>2023-11-09T15:09:20Z</time></trkpt><trkpt lat="54.712669" lon="55.950623"><ele>126.71435546875</ele><time>2023-11-09T15:09:21Z</time></trkpt><trkpt lat="54.712574" lon="55.950633"><ele>125.9100341796875</ele><time>2023-11-09T15:09:30Z</time></trkpt><trkpt lat="54.712524" lon="55.950629"><ele>125.12457275390625</ele><time>2023-11-09T15:09:35Z</time></trkpt><trkpt lat="54.712487" lon="55.950639"><ele>124.5205078125</ele><time>2023-11-09T15:09:38Z</time></trkpt><trkpt lat="54.712475" lon="55.950648"><ele>124.43475341796875</ele><time>2023-11-09T15:09:39Z</time></trkpt><trkpt lat="54.712443" lon="55.950687"><ele>124.05316162109375</ele><time>2023-11-09T15:09:42Z</time></trkpt><trkpt lat="54.712421" lon="55.950745"><ele>124.09234619140625</ele><time>2023-11-09T15:09:45Z</time></trkpt><trkpt lat="54.712404" lon="55.950907"><ele>122.7042236328125</ele><time>2023-11-09T15:09:52Z</time></trkpt><trkpt lat="54.712403" lon="55.950929"><ele>122.3623046875</ele><time>2023-11-09T15:09:53Z</time></trkpt><trkpt lat="54.712395" lon="55.951033"><ele>122.4195556640625</ele><time>2023-11-09T15:09:58Z</time></trkpt><trkpt lat="54.712411" lon="55.951269"><ele>120.61962890625</ele><time>2023-11-09T15:10:09Z</time></trkpt><trkpt lat="54.712412" lon="55.951289"><ele>120.3558349609375</ele><time>2023-11-09T15:10:10Z</time></trkpt><trkpt lat="54.712411" lon="55.951573"><ele>118.91693115234375</ele><time>2023-11-09T15:10:23Z</time></trkpt><trkpt lat="54.712413" lon="55.951598"><ele>118.35699462890625</ele><time>2023-11-09T15:10:24Z</time></trkpt><trkpt lat="54.712412" lon="55.951899"><ele>119.3497314453125</ele><time>2023-11-09T15:10:37Z</time></trkpt><trkpt lat="54.712412" lon="55.951924"><ele>119.30615234375</ele><time>2023-11-09T15:10:38Z</time></trkpt><trkpt lat="54.712416" lon="55.952271"><ele>116.407958984375</ele><time>2023-11-09T15:10:54Z</time></trkpt><trkpt lat="54.712416" lon="55.952295"><ele>116.4420166015625</ele><time>2023-11-09T15:10:55Z</time></trkpt><trkpt lat="54.712413" lon="55.952537"><ele>116.97503662109375</ele><time>2023-11-09T15:11:05Z</time></trkpt><trkpt lat="54.712411" lon="55.952561"><ele>116.9525146484375</ele><time>2023-11-09T15:11:06Z</time></trkpt><trkpt lat="54.712393" lon="55.952841"><ele>118.09576416015625</ele><time>2023-11-09T15:11:18Z</time></trkpt><trkpt lat="54.712387" lon="55.952866"><ele>118.09649658203125</ele><time>2023-11-09T15:11:19Z</time></trkpt><trkpt lat="54.712312" lon="55.953169"><ele>117.77374267578125</ele><time>2023-11-09T15:11:34Z</time></trkpt><trkpt lat="54.712307" lon="55.953188"><ele>117.56536865234375</ele><time>2023-11-09T15:11:35Z</time></trkpt><trkpt lat="54.712272" lon="55.953351"><ele>112.531494140625</ele><time>2023-11-09T15:11:46Z</time></trkpt><trkpt lat="54.712252" lon="55.95337"><ele>112.800537109375</ele><time>2023-11-09T15:11:48Z</time></trkpt><trkpt lat="54.712201" lon="55.953327"><ele>111.52813720703125</ele><time>2023-11-09T15:11:56Z</time></trkpt><trkpt lat="54.712193" lon="55.95332"><ele>111.4266357421875</ele><time>2023-11-09T15:11:57Z</time></trkpt><trkpt lat="54.71214" lon="55.953271"><ele>109.9873046875</ele><time>2023-11-09T15:12:05Z</time></trkpt><trkpt lat="54.712128" lon="55.953241"><ele>109.591064453125</ele><time>2023-11-09T15:12:07Z</time></trkpt><trkpt lat="54.712138" lon="55.953057"><ele>106.17333984375</ele><time>2023-11-09T15:12:22Z</time></trkpt><trkpt lat="54.712139" lon="55.953042"><ele>105.82183837890625</ele><time>2023-11-09T15:12:23Z</time></trkpt><trkpt lat="54.712153" lon="55.952793"><ele>105.232421875</ele><time>2023-11-09T15:12:41Z</time></trkpt><trkpt lat="54.712128" lon="55.952766"><ele>105.0711669921875</ele><time>2023-11-09T15:12:45Z</time></trkpt><trkpt lat="54.71212" lon="55.952765"><ele>105.18914794921875</ele><time>2023-11-09T15:12:46Z</time></trkpt><trkpt lat="54.712098" lon="55.952727"><ele>104.785400390625</ele><time>2023-11-09T15:12:50Z</time></trkpt><trkpt lat="54.712099" lon="55.952692"><ele>104.05596923828125</ele><time>2023-11-09T15:12:52Z</time></trkpt><trkpt lat="54.71208" lon="55.952663"><ele>103.3626708984375</ele><time>2023-11-09T15:12:56Z</time></trkpt><trkpt lat="54.711984" lon="55.952633"><ele>100.0098876953125</ele><time>2023-11-09T15:13:10Z</time></trkpt><trkpt lat="54.711978" lon="55.952629"><ele>99.510986328125</ele><time>2023-11-09T15:13:11Z</time></trkpt><trkpt lat="54.711947" lon="55.952625"><ele>99.6318359375</ele><time>2023-11-09T15:13:15Z</time></trkpt><trkpt lat="54.711926" lon="55.952804"><ele>95.936767578125</ele><time>2023-11-09T15:13:29Z</time></trkpt><trkpt lat="54.711898" lon="55.952821"><ele>95.5035400390625</ele><time>2023-11-09T15:13:32Z</time></trkpt><trkpt lat="54.711891" lon="55.952818"><ele>95.1546630859375</ele><time>2023-11-09T15:13:33Z</time></trkpt><trkpt lat="54.711727" lon="55.952709"><ele>91.20556640625</ele><time>2023-11-09T15:13:53Z</time></trkpt><trkpt lat="54.711716" lon="55.952707"><ele>90.60650634765625</ele><time>2023-11-09T15:13:54Z</time></trkpt><trkpt lat="54.711559" lon="55.952703"><ele>89.044677734375</ele><time>2023-11-09T15:14:07Z</time></trkpt><trkpt lat="54.711523" lon="55.952687"><ele>89.924072265625</ele><time>2023-11-09T15:14:10Z</time></trkpt><trkpt lat="54.711512" lon="55.952674"><ele>89.741455078125</ele><time>2023-11-09T15:14:11Z</time></trkpt><trkpt lat="54.711492" lon="55.95259"><ele>89.1971435546875</ele><time>2023-11-09T15:14:15Z</time></trkpt><trkpt lat="54.711504" lon="55.952402"><ele>87.9833984375</ele><time>2023-11-09T15:14:24Z</time></trkpt><trkpt lat="54.711505" lon="55.952378"><ele>88.18365478515625</ele><time>2023-11-09T15:14:25Z</time></trkpt><trkpt lat="54.711524" lon="55.952163"><ele>88.03704833984375</ele><time>2023-11-09T15:14:34Z</time></trkpt><trkpt lat="54.711527" lon="55.95214"><ele>87.78564453125</ele><time>2023-11-09T15:14:35Z</time></trkpt><trkpt lat="54.711551" lon="55.951851"><ele>87.7860107421875</ele><time>2023-11-09T15:14:48Z</time></trkpt><trkpt lat="54.711554" lon="55.951829"><ele>88.01324462890625</ele><time>2023-11-09T15:14:49Z</time></trkpt><trkpt lat="54.71158" lon="55.951489"><ele>87.8167724609375</ele><time>2023-11-09T15:15:04Z</time></trkpt><trkpt lat="54.711582" lon="55.951466"><ele>88.0638427734375</ele><time>2023-11-09T15:15:05Z</time></trkpt><trkpt lat="54.711616" lon="55.951122"><ele>88.00335693359375</ele><time>2023-11-09T15:15:21Z</time></trkpt><trkpt lat="54.711618" lon="55.951098"><ele>88.138427734375</ele><time>2023-11-09T15:15:22Z</time></trkpt><trkpt lat="54.711661" lon="55.950775"><ele>87.4520263671875</ele><time>2023-11-09T15:15:37Z</time></trkpt><trkpt lat="54.711665" lon="55.950753"><ele>87.1365966796875</ele><time>2023-11-09T15:15:38Z</time></trkpt><trkpt lat="54.711721" lon="55.95047"><ele>87.27032470703125</ele><time>2023-11-09T15:15:51Z</time></trkpt><trkpt lat="54.711727" lon="55.950446"><ele>87.542724609375</ele><time>2023-11-09T15:15:52Z</time></trkpt><trkpt lat="54.711782" lon="55.950227"><ele>86.80828857421875</ele><time>2023-11-09T15:16:02Z</time></trkpt><trkpt lat="54.711788" lon="55.950205"><ele>86.6195068359375</ele><time>2023-11-09T15:16:03Z</time></trkpt><trkpt lat="54.711836" lon="55.950005"><ele>87.02508544921875</ele><time>2023-11-09T15:16:12Z</time></trkpt><trkpt lat="54.711842" lon="55.949982"><ele>87.16796875</ele><time>2023-11-09T15:16:13Z</time></trkpt><trkpt lat="54.711901" lon="55.949723"><ele>87.33203125</ele><time>2023-11-09T15:16:25Z</time></trkpt><trkpt lat="54.711907" lon="55.949703"><ele>87.30133056640625</ele><time>2023-11-09T15:16:26Z</time></trkpt><trkpt lat="54.711985" lon="55.949394"><ele>87.30157470703125</ele><time>2023-11-09T15:16:42Z</time></trkpt><trkpt lat="54.71199" lon="55.949372"><ele>86.97027587890625</ele><time>2023-11-09T15:16:43Z</time></trkpt><trkpt lat="54.71204" lon="55.949175"><ele>87.069091796875</ele><time>2023-11-09T15:16:52Z</time></trkpt><trkpt lat="54.712045" lon="55.949153"><ele>87.08038330078125</ele><time>2023-11-09T15:16:53Z</time></trkpt><trkpt lat="54.712108" lon="55.948872"><ele>86.4625244140625</ele><time>2023-11-09T15:17:06Z</time></trkpt><trkpt lat="54.712112" lon="55.948849"><ele>86.7705078125</ele><time>2023-11-09T15:17:07Z</time></trkpt><trkpt lat="54.712176" lon="55.948573"><ele>87.097900390625</ele><time>2023-11-09T15:17:20Z</time></trkpt><trkpt lat="54.712182" lon="55.948554"><ele>86.92236328125</ele><time>2023-11-09T15:17:21Z</time></trkpt><trkpt lat="54.712237" lon="55.948296"><ele>87.5540771484375</ele><time>2023-11-09T15:17:33Z</time></trkpt><trkpt lat="54.71224" lon="55.948273"><ele>87.293212890625</ele><time>2023-11-09T15:17:34Z</time></trkpt><trkpt lat="54.712264" lon="55.948037"><ele>87.3192138671875</ele><time>2023-11-09T15:17:44Z</time></trkpt><trkpt lat="54.712265" lon="55.948013"><ele>87.173583984375</ele><time>2023-11-09T15:17:45Z</time></trkpt><trkpt lat="54.712293" lon="55.947719"><ele>87.71826171875</ele><time>2023-11-09T15:17:58Z</time></trkpt><trkpt lat="54.712295" lon="55.947698"><ele>87.8175048828125</ele><time>2023-11-09T15:17:59Z</time></trkpt><trkpt lat="54.712324" lon="55.947428"><ele>87.39154052734375</ele><time>2023-11-09T15:18:11Z</time></trkpt><trkpt lat="54.712327" lon="55.947404"><ele>87.52398681640625</ele><time>2023-11-09T15:18:12Z</time></trkpt><trkpt lat="54.712345" lon="55.947165"><ele>87.67852783203125</ele><time>2023-11-09T15:18:22Z</time></trkpt><trkpt lat="54.712346" lon="55.947141"><ele>87.85589599609375</ele><time>2023-11-09T15:18:23Z</time></trkpt><trkpt lat="54.712367" lon="55.946885"><ele>87.8453369140625</ele><time>2023-11-09T15:18:34Z</time></trkpt><trkpt lat="54.712369" lon="55.946861"><ele>87.802734375</ele><time>2023-11-09T15:18:35Z</time></trkpt><trkpt lat="54.712396" lon="55.946569"><ele>87.31072998046875</ele><time>2023-11-09T15:18:48Z</time></trkpt><trkpt lat="54.712398" lon="55.946546"><ele>87.1307373046875</ele><time>2023-11-09T15:18:49Z</time></trkpt><trkpt lat="54.712422" lon="55.946313"><ele>87.14825439453125</ele><time>2023-11-09T15:18:59Z</time></trkpt><trkpt lat="54.712425" lon="55.94629"><ele>87.077392578125</ele><time>2023-11-09T15:19:00Z</time></trkpt><trkpt lat="54.712457" lon="55.945953"><ele>87.58685302734375</ele><time>2023-11-09T15:19:15Z</time></trkpt><trkpt lat="54.712459" lon="55.94593"><ele>87.55194091796875</ele><time>2023-11-09T15:19:16Z</time></trkpt><trkpt lat="54.712492" lon="55.945634"><ele>87.443603515625</ele><time>2023-11-09T15:19:29Z</time></trkpt><trkpt lat="54.712493" lon="55.945613"><ele>87.8587646484375</ele><time>2023-11-09T15:19:30Z</time></trkpt><trkpt lat="54.712525" lon="55.945378"><ele>87.70770263671875</ele><time>2023-11-09T15:19:40Z</time></trkpt><trkpt lat="54.712529" lon="55.945355"><ele>87.60894775390625</ele><time>2023-11-09T15:19:41Z</time></trkpt><trkpt lat="54.712568" lon="55.945127"><ele>88.1279296875</ele><time>2023-11-09T15:19:51Z</time></trkpt><trkpt lat="54.712572" lon="55.945102"><ele>88.16998291015625</ele><time>2023-11-09T15:19:52Z</time></trkpt><trkpt lat="54.712616" lon="55.944876"><ele>87.6322021484375</ele><time>2023-11-09T15:20:02Z</time></trkpt><trkpt lat="54.712621" lon="55.944853"><ele>87.39752197265625</ele><time>2023-11-09T15:20:03Z</time></trkpt><trkpt lat="54.712677" lon="55.944547"><ele>87.466796875</ele><time>2023-11-09T15:20:17Z</time></trkpt><trkpt lat="54.712681" lon="55.944528"><ele>87.3681640625</ele><time>2023-11-09T15:20:18Z</time></trkpt><trkpt lat="54.712726" lon="55.944303"><ele>87.00701904296875</ele><time>2023-11-09T15:20:28Z</time></trkpt><trkpt lat="54.712731" lon="55.94428"><ele>87.19110107421875</ele><time>2023-11-09T15:20:29Z</time></trkpt><trkpt lat="54.712783" lon="55.944015"><ele>87.81793212890625</ele><time>2023-11-09T15:20:41Z</time></trkpt><trkpt lat="54.712788" lon="55.943992"><ele>87.9920654296875</ele><time>2023-11-09T15:20:42Z</time></trkpt><trkpt lat="54.712825" lon="55.943784"><ele>87.0562744140625</ele><time>2023-11-09T15:20:51Z</time></trkpt><trkpt lat="54.712829" lon="55.94376"><ele>87.406005859375</ele><time>2023-11-09T15:20:52Z</time></trkpt><trkpt lat="54.712866" lon="55.94355"><ele>87.4666748046875</ele><time>2023-11-09T15:21:01Z</time></trkpt><trkpt lat="54.712869" lon="55.943528"><ele>87.217041015625</ele><time>2023-11-09T15:21:02Z</time></trkpt><trkpt lat="54.712889" lon="55.943415"><ele>87.882080078125</ele><time>2023-11-09T15:21:07Z</time></trkpt><trkpt lat="54.712892" lon="55.943317"><ele>87.8824462890625</ele><time>2023-11-09T15:21:11Z</time></trkpt><trkpt lat="54.712892" lon="55.943294"><ele>87.73260498046875</ele><time>2023-11-09T15:21:12Z</time></trkpt><trkpt lat="54.712898" lon="55.943079"><ele>87.31842041015625</ele><time>2023-11-09T15:21:21Z</time></trkpt><trkpt lat="54.7129" lon="55.943055"><ele>87.47003173828125</ele><time>2023-11-09T15:21:22Z</time></trkpt><trkpt lat="54.71291" lon="55.942833"><ele>87.79638671875</ele><time>2023-11-09T15:21:31Z</time></trkpt><trkpt lat="54.71291" lon="55.942809"><ele>88.040283203125</ele><time>2023-11-09T15:21:32Z</time></trkpt><trkpt lat="54.712918" lon="55.942591"><ele>88.112548828125</ele><time>2023-11-09T15:21:41Z</time></trkpt><trkpt lat="54.712919" lon="55.942568"><ele>87.935791015625</ele><time>2023-11-09T15:21:42Z</time></trkpt><trkpt lat="54.712925" lon="55.94235"><ele>87.7008056640625</ele><time>2023-11-09T15:21:51Z</time></trkpt><trkpt lat="54.712926" lon="55.942326"><ele>88.09649658203125</ele><time>2023-11-09T15:21:52Z</time></trkpt><trkpt lat="54.712931" lon="55.942101"><ele>88.42730712890625</ele><time>2023-11-09T15:22:01Z</time></trkpt><trkpt lat="54.712931" lon="55.942076"><ele>88.188232421875</ele><time>2023-11-09T15:22:02Z</time></trkpt><trkpt lat="54.712944" lon="55.941814"><ele>87.42681884765625</ele><time>2023-11-09T15:22:13Z</time></trkpt><trkpt lat="54.712945" lon="55.941792"><ele>87.48065185546875</ele><time>2023-11-09T15:22:14Z</time></trkpt><trkpt lat="54.712962" lon="55.941575"><ele>87.99163818359375</ele><time>2023-11-09T15:22:23Z</time></trkpt><trkpt lat="54.712964" lon="55.941549"><ele>87.997802734375</ele><time>2023-11-09T15:22:24Z</time></trkpt><trkpt lat="54.712972" lon="55.941306"><ele>88.45184326171875</ele><time>2023-11-09T15:22:34Z</time></trkpt><trkpt lat="54.712971" lon="55.941283"><ele>88.681396484375</ele><time>2023-11-09T15:22:35Z</time></trkpt><trkpt lat="54.712982" lon="55.941064"><ele>88.5274658203125</ele><time>2023-11-09T15:22:44Z</time></trkpt><trkpt lat="54.712984" lon="55.94104"><ele>88.34002685546875</ele><time>2023-11-09T15:22:45Z</time></trkpt><trkpt lat="54.712997" lon="55.940819"><ele>87.872314453125</ele><time>2023-11-09T15:22:54Z</time></trkpt><trkpt lat="54.712998" lon="55.940794"><ele>87.8533935546875</ele><time>2023-11-09T15:22:55Z</time></trkpt><trkpt lat="54.713017" lon="55.940575"><ele>87.64215087890625</ele><time>2023-11-09T15:23:04Z</time></trkpt><trkpt lat="54.713019" lon="55.940551"><ele>87.71380615234375</ele><time>2023-11-09T15:23:05Z</time></trkpt><trkpt lat="54.713049" lon="55.940314"><ele>87.82647705078125</ele><time>2023-11-09T15:23:15Z</time></trkpt><trkpt lat="54.713053" lon="55.940291"><ele>87.785888671875</ele><time>2023-11-09T15:23:16Z</time></trkpt><trkpt lat="54.713098" lon="55.940064"><ele>87.52825927734375</ele><time>2023-11-09T15:23:26Z</time></trkpt><trkpt lat="54.713102" lon="55.940041"><ele>87.62371826171875</ele><time>2023-11-09T15:23:27Z</time></trkpt><trkpt lat="54.713153" lon="55.939821"><ele>87.1873779296875</ele><time>2023-11-09T15:23:37Z</time></trkpt><trkpt lat="54.713159" lon="55.939799"><ele>87.3360595703125</ele><time>2023-11-09T15:23:38Z</time></trkpt><trkpt lat="54.713206" lon="55.939594"><ele>87.74273681640625</ele><time>2023-11-09T15:23:47Z</time></trkpt><trkpt lat="54.713211" lon="55.939572"><ele>87.5919189453125</ele><time>2023-11-09T15:23:48Z</time></trkpt><trkpt lat="54.713273" lon="55.93936"><ele>87.9229736328125</ele><time>2023-11-09T15:23:58Z</time></trkpt><trkpt lat="54.71328" lon="55.939338"><ele>88.1370849609375</ele><time>2023-11-09T15:23:59Z</time></trkpt><trkpt lat="54.713343" lon="55.939149"><ele>87.51507568359375</ele><time>2023-11-09T15:24:08Z</time></trkpt><trkpt lat="54.713351" lon="55.93913"><ele>87.58746337890625</ele><time>2023-11-09T15:24:09Z</time></trkpt><trkpt lat="54.713423" lon="55.938942"><ele>87.654296875</ele><time>2023-11-09T15:24:18Z</time></trkpt><trkpt lat="54.71343" lon="55.93892"><ele>87.6259765625</ele><time>2023-11-09T15:24:19Z</time></trkpt><trkpt lat="54.713507" lon="55.938716"><ele>87.32733154296875</ele><time>2023-11-09T15:24:29Z</time></trkpt><trkpt lat="54.713515" lon="55.938698"><ele>87.3040771484375</ele><time>2023-11-09T15:24:30Z</time></trkpt><trkpt lat="54.713585" lon="55.938512"><ele>87.87823486328125</ele><time>2023-11-09T15:24:39Z</time></trkpt><trkpt lat="54.713594" lon="55.938492"><ele>87.8641357421875</ele><time>2023-11-09T15:24:40Z</time></trkpt><trkpt lat="54.713666" lon="55.938314"><ele>87.09136962890625</ele><time>2023-11-09T15:24:49Z</time></trkpt><trkpt lat="54.713675" lon="55.938295"><ele>87.1920166015625</ele><time>2023-11-09T15:24:50Z</time></trkpt><trkpt lat="54.713729" lon="55.938183"><ele>86.81231689453125</ele><time>2023-11-09T15:24:56Z</time></trkpt><trkpt lat="54.713773" lon="55.938128"><ele>86.9346923828125</ele><time>2023-11-09T15:25:00Z</time></trkpt><trkpt lat="54.713786" lon="55.938118"><ele>86.93060302734375</ele><time>2023-11-09T15:25:01Z</time></trkpt><trkpt lat="54.713838" lon="55.938082"><ele>86.8951416015625</ele><time>2023-11-09T15:25:05Z</time></trkpt><trkpt lat="54.713892" lon="55.938004"><ele>86.5545654296875</ele><time>2023-11-09T15:25:10Z</time></trkpt><trkpt lat="54.7139" lon="55.937986"><ele>86.4425048828125</ele><time>2023-11-09T15:25:11Z</time></trkpt><trkpt lat="54.713979" lon="55.937788"><ele>86.20947265625</ele><time>2023-11-09T15:25:21Z</time></trkpt><trkpt lat="54.713987" lon="55.937771"><ele>86.02642822265625</ele><time>2023-11-09T15:25:22Z</time></trkpt><trkpt lat="54.71409" lon="55.93751"><ele>87.4599609375</ele><time>2023-11-09T15:25:36Z</time></trkpt><trkpt lat="54.714097" lon="55.937487"><ele>87.3807373046875</ele><time>2023-11-09T15:25:37Z</time></trkpt><trkpt lat="54.714165" lon="55.937276"><ele>87.517333984375</ele><time>2023-11-09T15:25:47Z</time></trkpt><trkpt lat="54.714171" lon="55.937255"><ele>87.2528076171875</ele><time>2023-11-09T15:25:48Z</time></trkpt><trkpt lat="54.714275" lon="55.936981"><ele>86.810546875</ele><time>2023-11-09T15:26:02Z</time></trkpt><trkpt lat="54.714282" lon="55.936958"><ele>86.74908447265625</ele><time>2023-11-09T15:26:03Z</time></trkpt><trkpt lat="54.714343" lon="55.936735"><ele>86.076416015625</ele><time>2023-11-09T15:26:13Z</time></trkpt><trkpt lat="54.714351" lon="55.93671"><ele>86.144287109375</ele><time>2023-11-09T15:26:14Z</time></trkpt><trkpt lat="54.714409" lon="55.936487"><ele>86.3021240234375</ele><time>2023-11-09T15:26:24Z</time></trkpt><trkpt lat="54.714414" lon="55.936463"><ele>86.062255859375</ele><time>2023-11-09T15:26:25Z</time></trkpt><trkpt lat="54.714472" lon="55.93624"><ele>86.337890625</ele><time>2023-11-09T15:26:35Z</time></trkpt><trkpt lat="54.714479" lon="55.936221"><ele>86.1448974609375</ele><time>2023-11-09T15:26:36Z</time></trkpt><trkpt lat="54.714502" lon="55.936138"><ele>85.818359375</ele><time>2023-11-09T15:26:40Z</time></trkpt><trkpt lat="54.714526" lon="55.935986"><ele>86.7581787109375</ele><time>2023-11-09T15:26:46Z</time></trkpt><trkpt lat="54.714531" lon="55.93596"><ele>87.45782470703125</ele><time>2023-11-09T15:26:47Z</time></trkpt><trkpt lat="54.714566" lon="55.935733"><ele>87.3173828125</ele><time>2023-11-09T15:26:56Z</time></trkpt><trkpt lat="54.714571" lon="55.935709"><ele>87.2119140625</ele><time>2023-11-09T15:26:57Z</time></trkpt><trkpt lat="54.714614" lon="55.935453"><ele>86.113525390625</ele><time>2023-11-09T15:27:07Z</time></trkpt><trkpt lat="54.714619" lon="55.935429"><ele>86.98260498046875</ele><time>2023-11-09T15:27:08Z</time></trkpt><trkpt lat="54.714644" lon="55.935208"><ele>87.684814453125</ele><time>2023-11-09T15:27:17Z</time></trkpt><trkpt lat="54.714648" lon="55.935183"><ele>87.4254150390625</ele><time>2023-11-09T15:27:18Z</time></trkpt><trkpt lat="54.714667" lon="55.934953"><ele>86.91497802734375</ele><time>2023-11-09T15:27:27Z</time></trkpt><trkpt lat="54.714669" lon="55.934932"><ele>86.58782958984375</ele><time>2023-11-09T15:27:28Z</time></trkpt><trkpt lat="54.714686" lon="55.934704"><ele>88.172607421875</ele><time>2023-11-09T15:27:37Z</time></trkpt><trkpt lat="54.714688" lon="55.93468"><ele>88.072998046875</ele><time>2023-11-09T15:27:38Z</time></trkpt><trkpt lat="54.714694" lon="55.934446"><ele>87.9066162109375</ele><time>2023-11-09T15:27:47Z</time></trkpt><trkpt lat="54.714693" lon="55.934423"><ele>87.953125</ele><time>2023-11-09T15:27:48Z</time></trkpt><trkpt lat="54.714698" lon="55.934177"><ele>87.806884765625</ele><time>2023-11-09T15:27:58Z</time></trkpt><trkpt lat="54.7147" lon="55.934153"><ele>87.7569580078125</ele><time>2023-11-09T15:27:59Z</time></trkpt><trkpt lat="54.714706" lon="55.933925"><ele>87.64288330078125</ele><time>2023-11-09T15:28:08Z</time></trkpt><trkpt lat="54.714705" lon="55.933898"><ele>87.481689453125</ele><time>2023-11-09T15:28:09Z</time></trkpt><trkpt lat="54.714709" lon="55.933672"><ele>87.587890625</ele><time>2023-11-09T15:28:18Z</time></trkpt><trkpt lat="54.71471" lon="55.93365"><ele>87.33270263671875</ele><time>2023-11-09T15:28:19Z</time></trkpt><trkpt lat="54.71471" lon="55.933427"><ele>87.55120849609375</ele><time>2023-11-09T15:28:28Z</time></trkpt><trkpt lat="54.71471" lon="55.933403"><ele>87.495361328125</ele><time>2023-11-09T15:28:29Z</time></trkpt><trkpt lat="54.714719" lon="55.933173"><ele>87.806884765625</ele><time>2023-11-09T15:28:39Z</time></trkpt><trkpt lat="54.714736" lon="55.933151"><ele>87.4688720703125</ele><time>2023-11-09T15:28:44Z</time></trkpt><trkpt lat="54.714763" lon="55.933145"><ele>86.8759765625</ele><time>2023-11-09T15:28:46Z</time></trkpt><trkpt lat="54.714779" lon="55.933143"><ele>86.73919677734375</ele><time>2023-11-09T15:28:47Z</time></trkpt><trkpt lat="54.714878" lon="55.933144"><ele>86.625732421875</ele><time>2023-11-09T15:28:54Z</time></trkpt><trkpt lat="54.714894" lon="55.933138"><ele>86.9207763671875</ele><time>2023-11-09T15:28:55Z</time></trkpt><trkpt lat="54.714912" lon="55.933102"><ele>87.85040283203125</ele><time>2023-11-09T15:28:57Z</time></trkpt><trkpt lat="54.714915" lon="55.933077"><ele>88.3526611328125</ele><time>2023-11-09T15:28:58Z</time></trkpt><trkpt lat="54.714917" lon="55.932844"><ele>88.4879150390625</ele><time>2023-11-09T15:29:07Z</time></trkpt><trkpt lat="54.714917" lon="55.932817"><ele>88.734130859375</ele><time>2023-11-09T15:29:08Z</time></trkpt><trkpt lat="54.714927" lon="55.932589"><ele>88.90380859375</ele><time>2023-11-09T15:29:17Z</time></trkpt><trkpt lat="54.714929" lon="55.932563"><ele>88.87060546875</ele><time>2023-11-09T15:29:18Z</time></trkpt><trkpt lat="54.714951" lon="55.932341"><ele>88.809326171875</ele><time>2023-11-09T15:29:27Z</time></trkpt><trkpt lat="54.714954" lon="55.932316"><ele>89.170654296875</ele><time>2023-11-09T15:29:28Z</time></trkpt><trkpt lat="54.714977" lon="55.932181"><ele>88.9266357421875</ele><time>2023-11-09T15:29:34Z</time></trkpt><trkpt lat="54.714983" lon="55.932049"><ele>89.99169921875</ele><time>2023-11-09T15:29:39Z</time></trkpt><trkpt lat="54.714984" lon="55.932024"><ele>89.476806640625</ele><time>2023-11-09T15:29:40Z</time></trkpt><trkpt lat="54.715022" lon="55.931787"><ele>89.021240234375</ele><time>2023-11-09T15:29:50Z</time></trkpt><trkpt lat="54.715027" lon="55.931763"><ele>89.04888916015625</ele><time>2023-11-09T15:29:51Z</time></trkpt><trkpt lat="54.715058" lon="55.931612"><ele>89.005126953125</ele><time>2023-11-09T15:29:58Z</time></trkpt><trkpt lat="54.715119" lon="55.931489"><ele>87.927490234375</ele><time>2023-11-09T15:30:05Z</time></trkpt><trkpt lat="54.715131" lon="55.931471"><ele>88.01434326171875</ele><time>2023-11-09T15:30:06Z</time></trkpt><trkpt lat="54.715184" lon="55.931359"><ele>87.39007568359375</ele><time>2023-11-09T15:30:12Z</time></trkpt><trkpt lat="54.715225" lon="55.931298"><ele>87.4732666015625</ele><time>2023-11-09T15:30:16Z</time></trkpt><trkpt lat="54.715235" lon="55.931285"><ele>87.67828369140625</ele><time>2023-11-09T15:30:17Z</time></trkpt><trkpt lat="54.715277" lon="55.931226"><ele>87.68780517578125</ele><time>2023-11-09T15:30:23Z</time></trkpt><trkpt lat="54.715359" lon="55.931052"><ele>88.17462158203125</ele><time>2023-11-09T15:30:33Z</time></trkpt><trkpt lat="54.715366" lon="55.931033"><ele>88.1881103515625</ele><time>2023-11-09T15:30:34Z</time></trkpt><trkpt lat="54.715452" lon="55.930818"><ele>87.71612548828125</ele><time>2023-11-09T15:30:45Z</time></trkpt><trkpt lat="54.715462" lon="55.9308"><ele>87.803955078125</ele><time>2023-11-09T15:30:46Z</time></trkpt><trkpt lat="54.715537" lon="55.930627"><ele>88.0755615234375</ele><time>2023-11-09T15:30:55Z</time></trkpt><trkpt lat="54.715545" lon="55.930607"><ele>88.12689208984375</ele><time>2023-11-09T15:30:56Z</time></trkpt><trkpt lat="54.715638" lon="55.930402"><ele>89.178466796875</ele><time>2023-11-09T15:31:07Z</time></trkpt><trkpt lat="54.715646" lon="55.930385"><ele>89.20452880859375</ele><time>2023-11-09T15:31:08Z</time></trkpt><trkpt lat="54.715727" lon="55.930194"><ele>91.04022216796875</ele><time>2023-11-09T15:31:18Z</time></trkpt><trkpt lat="54.715735" lon="55.930175"><ele>91.09075927734375</ele><time>2023-11-09T15:31:19Z</time></trkpt><trkpt lat="54.715819" lon="55.929985"><ele>92.58819580078125</ele><time>2023-11-09T15:31:29Z</time></trkpt><trkpt lat="54.715827" lon="55.929965"><ele>92.6080322265625</ele><time>2023-11-09T15:31:30Z</time></trkpt><trkpt lat="54.715908" lon="55.929772"><ele>94.0477294921875</ele><time>2023-11-09T15:31:40Z</time></trkpt><trkpt lat="54.715915" lon="55.929754"><ele>94.3475341796875</ele><time>2023-11-09T15:31:41Z</time></trkpt><trkpt lat="54.716013" lon="55.929534"><ele>95.414794921875</ele><time>2023-11-09T15:31:53Z</time></trkpt><trkpt lat="54.71602" lon="55.929518"><ele>95.4434814453125</ele><time>2023-11-09T15:31:54Z</time></trkpt><trkpt lat="54.716148" lon="55.929236"><ele>97.19818115234375</ele><time>2023-11-09T15:32:10Z</time></trkpt><trkpt lat="54.716157" lon="55.92922"><ele>97.5191650390625</ele><time>2023-11-09T15:32:11Z</time></trkpt><trkpt lat="54.716287" lon="55.928939"><ele>99.85870361328125</ele><time>2023-11-09T15:32:27Z</time></trkpt><trkpt lat="54.716297" lon="55.928922"><ele>99.929443359375</ele><time>2023-11-09T15:32:28Z</time></trkpt><trkpt lat="54.716366" lon="55.92882"><ele>100.88885498046875</ele><time>2023-11-09T15:32:35Z</time></trkpt><trkpt lat="54.71641" lon="55.928781"><ele>101.2598876953125</ele><time>2023-11-09T15:32:39Z</time></trkpt><trkpt lat="54.716468" lon="55.928746"><ele>102.7098388671875</ele><time>2023-11-09T15:32:44Z</time></trkpt><trkpt lat="54.71648" lon="55.928742"><ele>102.87188720703125</ele><time>2023-11-09T15:32:45Z</time></trkpt><trkpt lat="54.716584" lon="55.928716"><ele>104.92095947265625</ele><time>2023-11-09T15:32:54Z</time></trkpt><trkpt lat="54.716673" lon="55.928717"><ele>106.1231689453125</ele><time>2023-11-09T15:33:01Z</time></trkpt><trkpt lat="54.716685" lon="55.928718"><ele>106.26788330078125</ele><time>2023-11-09T15:33:02Z</time></trkpt><trkpt lat="54.716811" lon="55.928725"><ele>107.3681640625</ele><time>2023-11-09T15:33:12Z</time></trkpt><trkpt lat="54.716872" lon="55.928741"><ele>108.01971435546875</ele><time>2023-11-09T15:33:17Z</time></trkpt><trkpt lat="54.716884" lon="55.928743"><ele>108.197998046875</ele><time>2023-11-09T15:33:18Z</time></trkpt><trkpt lat="54.716944" lon="55.928746"><ele>108.9483642578125</ele><time>2023-11-09T15:33:23Z</time></trkpt><trkpt lat="54.717075" lon="55.928776"><ele>111.88818359375</ele><time>2023-11-09T15:33:34Z</time></trkpt><trkpt lat="54.717086" lon="55.92878"><ele>112.0467529296875</ele><time>2023-11-09T15:33:35Z</time></trkpt><trkpt lat="54.717161" lon="55.928833"><ele>112.6724853515625</ele><time>2023-11-09T15:33:42Z</time></trkpt><trkpt lat="54.717255" lon="55.928918"><ele>114.83734130859375</ele><time>2023-11-09T15:33:51Z</time></trkpt><trkpt lat="54.717264" lon="55.928929"><ele>114.89361572265625</ele><time>2023-11-09T15:33:52Z</time></trkpt><trkpt lat="54.717311" lon="55.928997"><ele>115.974609375</ele><time>2023-11-09T15:33:57Z</time></trkpt><trkpt lat="54.717341" lon="55.929063"><ele>116.30987548828125</ele><time>2023-11-09T15:34:01Z</time></trkpt><trkpt lat="54.717376" lon="55.929195"><ele>117.20245361328125</ele><time>2023-11-09T15:34:08Z</time></trkpt><trkpt lat="54.717379" lon="55.929214"><ele>117.17962646484375</ele><time>2023-11-09T15:34:09Z</time></trkpt><trkpt lat="54.717431" lon="55.929504"><ele>120.3199462890625</ele><time>2023-11-09T15:34:25Z</time></trkpt><trkpt lat="54.717435" lon="55.929521"><ele>120.6973876953125</ele><time>2023-11-09T15:34:26Z</time></trkpt><trkpt lat="54.717491" lon="55.92982"><ele>124.41259765625</ele><time>2023-11-09T15:34:42Z</time></trkpt><trkpt lat="54.717493" lon="55.929841"><ele>124.51336669921875</ele><time>2023-11-09T15:34:43Z</time></trkpt><trkpt lat="54.717509" lon="55.929975"><ele>126.488037109375</ele><time>2023-11-09T15:34:50Z</time></trkpt><trkpt lat="54.717561" lon="55.930127"><ele>127.08154296875</ele><time>2023-11-09T15:34:59Z</time></trkpt><trkpt lat="54.717569" lon="55.930144"><ele>127.4910888671875</ele><time>2023-11-09T15:35:00Z</time></trkpt><trkpt lat="54.717643" lon="55.930273"><ele>129.79364013671875</ele><time>2023-11-09T15:35:09Z</time></trkpt><trkpt lat="54.717712" lon="55.930342"><ele>130.60296630859375</ele><time>2023-11-09T15:35:16Z</time></trkpt><trkpt lat="54.717723" lon="55.930349"><ele>130.67120361328125</ele><time>2023-11-09T15:35:17Z</time></trkpt><trkpt lat="54.717785" lon="55.930366"><ele>131.3724365234375</ele><time>2023-11-09T15:35:22Z</time></trkpt><trkpt lat="54.717858" lon="55.930367"><ele>131.93603515625</ele><time>2023-11-09T15:35:28Z</time></trkpt><trkpt lat="54.71791" lon="55.930342"><ele>132.03778076171875</ele><time>2023-11-09T15:35:33Z</time></trkpt><trkpt lat="54.717921" lon="55.930333"><ele>132.25146484375</ele><time>2023-11-09T15:35:34Z</time></trkpt><trkpt lat="54.718062" lon="55.930115"><ele>134.3956298828125</ele><time>2023-11-09T15:35:50Z</time></trkpt><trkpt lat="54.718071" lon="55.930101"><ele>134.44171142578125</ele><time>2023-11-09T15:35:51Z</time></trkpt><trkpt lat="54.718208" lon="55.929859"><ele>137.998046875</ele><time>2023-11-09T15:36:07Z</time></trkpt><trkpt lat="54.718216" lon="55.929845"><ele>137.9375</ele><time>2023-11-09T15:36:08Z</time></trkpt><trkpt lat="54.718261" lon="55.929779"><ele>139.5657958984375</ele><time>2023-11-09T15:36:13Z</time></trkpt><trkpt lat="54.718282" lon="55.929762"><ele>139.83807373046875</ele><time>2023-11-09T15:36:15Z</time></trkpt><trkpt lat="54.718385" lon="55.929714"><ele>141.760009765625</ele><time>2023-11-09T15:36:23Z</time></trkpt><trkpt lat="54.718397" lon="55.929708"><ele>141.97418212890625</ele><time>2023-11-09T15:36:24Z</time></trkpt><trkpt lat="54.718598" lon="55.92963"><ele>144.2896728515625</ele><time>2023-11-09T15:36:40Z</time></trkpt><trkpt lat="54.71861" lon="55.929625"><ele>144.262451171875</ele><time>2023-11-09T15:36:41Z</time></trkpt><trkpt lat="54.718789" lon="55.929588"><ele>144.83453369140625</ele><time>2023-11-09T15:36:55Z</time></trkpt><trkpt lat="54.718803" lon="55.929585"><ele>144.91314697265625</ele><time>2023-11-09T15:36:56Z</time></trkpt><trkpt lat="54.718864" lon="55.929577"><ele>145.52337646484375</ele><time>2023-11-09T15:37:01Z</time></trkpt><trkpt lat="54.718997" lon="55.929591"><ele>147.7366943359375</ele><time>2023-11-09T15:37:12Z</time></trkpt><trkpt lat="54.71901" lon="55.929588"><ele>148.26806640625</ele><time>2023-11-09T15:37:13Z</time></trkpt><trkpt lat="54.719141" lon="55.929565"><ele>150.6524658203125</ele><time>2023-11-09T15:37:23Z</time></trkpt><trkpt lat="54.719179" lon="55.92957"><ele>151.42901611328125</ele><time>2023-11-09T15:37:26Z</time></trkpt><trkpt lat="54.719192" lon="55.929568"><ele>151.7025146484375</ele><time>2023-11-09T15:37:27Z</time></trkpt><trkpt lat="54.719381" lon="55.929573"><ele>152.7808837890625</ele><time>2023-11-09T15:37:42Z</time></trkpt><trkpt lat="54.719394" lon="55.929576"><ele>153.04388427734375</ele><time>2023-11-09T15:37:43Z</time></trkpt><trkpt lat="54.719519" lon="55.929613"><ele>155.40179443359375</ele><time>2023-11-09T15:37:53Z</time></trkpt><trkpt lat="54.719575" lon="55.929643"><ele>156.3394775390625</ele><time>2023-11-09T15:37:58Z</time></trkpt><trkpt lat="54.719586" lon="55.929651"><ele>156.28302001953125</ele><time>2023-11-09T15:37:59Z</time></trkpt><trkpt lat="54.719743" lon="55.929762"><ele>158.666748046875</ele><time>2023-11-09T15:38:12Z</time></trkpt><trkpt lat="54.719756" lon="55.92977"><ele>159.13720703125</ele><time>2023-11-09T15:38:13Z</time></trkpt><trkpt lat="54.719913" lon="55.929901"><ele>161.821533203125</ele><time>2023-11-09T15:38:26Z</time></trkpt><trkpt lat="54.719925" lon="55.929909"><ele>161.53948974609375</ele><time>2023-11-09T15:38:27Z</time></trkpt><trkpt lat="54.720046" lon="55.929998"><ele>162.5128173828125</ele><time>2023-11-09T15:38:36Z</time></trkpt><trkpt lat="54.72006" lon="55.930007"><ele>162.74310302734375</ele><time>2023-11-09T15:38:37Z</time></trkpt><trkpt lat="54.720187" lon="55.930084"><ele>164.08306884765625</ele><time>2023-11-09T15:38:46Z</time></trkpt><trkpt lat="54.7202" lon="55.930098"><ele>164.216064453125</ele><time>2023-11-09T15:38:47Z</time></trkpt><trkpt lat="54.72032" lon="55.930219"><ele>165.361572265625</ele><time>2023-11-09T15:38:57Z</time></trkpt><trkpt lat="54.720332" lon="55.930228"><ele>165.2117919921875</ele><time>2023-11-09T15:38:58Z</time></trkpt><trkpt lat="54.720467" lon="55.930331"><ele>166.84991455078125</ele><time>2023-11-09T15:39:09Z</time></trkpt><trkpt lat="54.720478" lon="55.930341"><ele>166.42938232421875</ele><time>2023-11-09T15:39:10Z</time></trkpt><trkpt lat="54.720597" lon="55.93044"><ele>167.385498046875</ele><time>2023-11-09T15:39:19Z</time></trkpt><trkpt lat="54.720609" lon="55.93045"><ele>167.58343505859375</ele><time>2023-11-09T15:39:20Z</time></trkpt><trkpt lat="54.720754" lon="55.930579"><ele>168.20941162109375</ele><time>2023-11-09T15:39:33Z</time></trkpt><trkpt lat="54.720765" lon="55.930588"><ele>168.52215576171875</ele><time>2023-11-09T15:39:34Z</time></trkpt><trkpt lat="54.720948" lon="55.930727"><ele>171.54669189453125</ele><time>2023-11-09T15:39:55Z</time></trkpt><trkpt lat="54.720959" lon="55.930735"><ele>171.42962646484375</ele><time>2023-11-09T15:39:56Z</time></trkpt><trkpt lat="54.721046" lon="55.930795"><ele>172.57342529296875</ele><time>2023-11-09T15:40:03Z</time></trkpt><trkpt lat="54.721094" lon="55.93084"><ele>172.9552001953125</ele><time>2023-11-09T15:40:07Z</time></trkpt><trkpt lat="54.721106" lon="55.930849"><ele>173.29437255859375</ele><time>2023-11-09T15:40:08Z</time></trkpt><trkpt lat="54.721141" lon="55.930883"><ele>173.30975341796875</ele><time>2023-11-09T15:40:11Z</time></trkpt><trkpt lat="54.721224" lon="55.931021"><ele>173.98828125</ele><time>2023-11-09T15:40:19Z</time></trkpt><trkpt lat="54.721234" lon="55.931038"><ele>174.05609130859375</ele><time>2023-11-09T15:40:20Z</time></trkpt><trkpt lat="54.721257" lon="55.931083"><ele>174.228271484375</ele><time>2023-11-09T15:40:23Z</time></trkpt><trkpt lat="54.721263" lon="55.93112"><ele>174.0498046875</ele><time>2023-11-09T15:40:25Z</time></trkpt><trkpt lat="54.721256" lon="55.93128"><ele>174.8118896484375</ele><time>2023-11-09T15:40:31Z</time></trkpt><trkpt lat="54.721253" lon="55.931305"><ele>175.4342041015625</ele><time>2023-11-09T15:40:32Z</time></trkpt><trkpt lat="54.72123" lon="55.931534"><ele>175.9368896484375</ele><time>2023-11-09T15:40:41Z</time></trkpt><trkpt lat="54.721226" lon="55.931556"><ele>175.8399658203125</ele><time>2023-11-09T15:40:42Z</time></trkpt><trkpt lat="54.721166" lon="55.931793"><ele>177.95074462890625</ele><time>2023-11-09T15:40:52Z</time></trkpt><trkpt lat="54.72116" lon="55.931819"><ele>178.18914794921875</ele><time>2023-11-09T15:40:53Z</time></trkpt><trkpt lat="54.721135" lon="55.931943"><ele>179.4239501953125</ele><time>2023-11-09T15:40:58Z</time></trkpt><trkpt lat="54.7211" lon="55.93205"><ele>181.28900146484375</ele><time>2023-11-09T15:41:03Z</time></trkpt><trkpt lat="54.721095" lon="55.932071"><ele>180.59039306640625</ele><time>2023-11-09T15:41:04Z</time></trkpt><trkpt lat="54.721076" lon="55.93216"><ele>180.74169921875</ele><time>2023-11-09T15:41:08Z</time></trkpt><trkpt lat="54.721058" lon="55.93233"><ele>179.91650390625</ele><time>2023-11-09T15:41:14Z</time></trkpt><trkpt lat="54.721054" lon="55.932355"><ele>179.9017333984375</ele><time>2023-11-09T15:41:15Z</time></trkpt><trkpt lat="54.721013" lon="55.932588"><ele>179.88885498046875</ele><time>2023-11-09T15:41:25Z</time></trkpt><trkpt lat="54.721011" lon="55.932612"><ele>179.37982177734375</ele><time>2023-11-09T15:41:26Z</time></trkpt><trkpt lat="54.721002" lon="55.932739"><ele>180.0654296875</ele><time>2023-11-09T15:41:31Z</time></trkpt><trkpt lat="54.720981" lon="55.93286"><ele>180.07275390625</ele><time>2023-11-09T15:41:36Z</time></trkpt><trkpt lat="54.720976" lon="55.932884"><ele>180.3267822265625</ele><time>2023-11-09T15:41:37Z</time></trkpt><trkpt lat="54.720942" lon="55.933122"><ele>181.810302734375</ele><time>2023-11-09T15:41:47Z</time></trkpt><trkpt lat="54.720939" lon="55.933148"><ele>182.0555419921875</ele><time>2023-11-09T15:41:48Z</time></trkpt><trkpt lat="54.7209" lon="55.933366"><ele>181.11444091796875</ele><time>2023-11-09T15:41:57Z</time></trkpt><trkpt lat="54.720895" lon="55.933389"><ele>181.1263427734375</ele><time>2023-11-09T15:41:58Z</time></trkpt><trkpt lat="54.720856" lon="55.93361"><ele>181.25140380859375</ele><time>2023-11-09T15:42:07Z</time></trkpt><trkpt lat="54.720853" lon="55.933633"><ele>180.9564208984375</ele><time>2023-11-09T15:42:08Z</time></trkpt><trkpt lat="54.720809" lon="55.933853"><ele>182.79486083984375</ele><time>2023-11-09T15:42:17Z</time></trkpt><trkpt lat="54.720805" lon="55.933877"><ele>182.8236083984375</ele><time>2023-11-09T15:42:18Z</time></trkpt><trkpt lat="54.720769" lon="55.934129"><ele>182.75909423828125</ele><time>2023-11-09T15:42:28Z</time></trkpt><trkpt lat="54.720762" lon="55.934149"><ele>181.55755615234375</ele><time>2023-11-09T15:42:29Z</time></trkpt><trkpt lat="54.720744" lon="55.93421"><ele>181.0889892578125</ele><time>2023-11-09T15:42:32Z</time></trkpt><trkpt lat="54.72071" lon="55.934411"><ele>183.521484375</ele><time>2023-11-09T15:42:40Z</time></trkpt><trkpt lat="54.720703" lon="55.934433"><ele>183.184814453125</ele><time>2023-11-09T15:42:41Z</time></trkpt><trkpt lat="54.72067" lon="55.934662"><ele>185.342041015625</ele><time>2023-11-09T15:42:50Z</time></trkpt><trkpt lat="54.720666" lon="55.934689"><ele>185.078369140625</ele><time>2023-11-09T15:42:51Z</time></trkpt><trkpt lat="54.720631" lon="55.934931"><ele>185.9635009765625</ele><time>2023-11-09T15:43:01Z</time></trkpt><trkpt lat="54.720628" lon="55.934951"><ele>185.1602783203125</ele><time>2023-11-09T15:43:02Z</time></trkpt><trkpt lat="54.720605" lon="55.935195"><ele>183.17901611328125</ele><time>2023-11-09T15:43:12Z</time></trkpt><trkpt lat="54.720605" lon="55.935206"><ele>183.3580322265625</ele><time>2023-11-09T15:43:13Z</time></trkpt><trkpt lat="54.720597" lon="55.935319"><ele>184.5067138671875</ele><time>2023-11-09T15:43:20Z</time></trkpt><trkpt lat="54.72056" lon="55.93549"><ele>186.7122802734375</ele><time>2023-11-09T15:43:28Z</time></trkpt><trkpt lat="54.720553" lon="55.935518"><ele>186.45062255859375</ele><time>2023-11-09T15:43:29Z</time></trkpt><trkpt lat="54.720501" lon="55.93576"><ele>185.7666015625</ele><time>2023-11-09T15:43:39Z</time></trkpt><trkpt lat="54.720494" lon="55.935783"><ele>186.04638671875</ele><time>2023-11-09T15:43:40Z</time></trkpt><trkpt lat="54.720475" lon="55.936063"><ele>188.12255859375</ele><time>2023-11-09T15:43:51Z</time></trkpt><trkpt lat="54.720474" lon="55.936087"><ele>188.20281982421875</ele><time>2023-11-09T15:43:52Z</time></trkpt><trkpt lat="54.720462" lon="55.936322"><ele>187.71807861328125</ele><time>2023-11-09T15:44:01Z</time></trkpt><trkpt lat="54.720457" lon="55.936346"><ele>188.24713134765625</ele><time>2023-11-09T15:44:02Z</time></trkpt><trkpt lat="54.720405" lon="55.936568"><ele>190.10369873046875</ele><time>2023-11-09T15:44:11Z</time></trkpt><trkpt lat="54.720401" lon="55.936593"><ele>189.42755126953125</ele><time>2023-11-09T15:44:12Z</time></trkpt><trkpt lat="54.720363" lon="55.93671"><ele>185.668212890625</ele><time>2023-11-09T15:44:17Z</time></trkpt><trkpt lat="54.720348" lon="55.936846"><ele>185.103515625</ele><time>2023-11-09T15:44:23Z</time></trkpt><trkpt lat="54.72034" lon="55.936873"><ele>185.6014404296875</ele><time>2023-11-09T15:44:24Z</time></trkpt><trkpt lat="54.720294" lon="55.937101"><ele>183.4537353515625</ele><time>2023-11-09T15:44:33Z</time></trkpt><trkpt lat="54.720291" lon="55.937128"><ele>183.78814697265625</ele><time>2023-11-09T15:44:34Z</time></trkpt><trkpt lat="54.720268" lon="55.937211"><ele>183.58935546875</ele><time>2023-11-09T15:44:38Z</time></trkpt><trkpt lat="54.720251" lon="55.937372"><ele>184.66571044921875</ele><time>2023-11-09T15:44:44Z</time></trkpt><trkpt lat="54.720249" lon="55.937396"><ele>184.7325439453125</ele><time>2023-11-09T15:44:45Z</time></trkpt><trkpt lat="54.720212" lon="55.937627"><ele>183.15966796875</ele><time>2023-11-09T15:44:54Z</time></trkpt><trkpt lat="54.720209" lon="55.937651"><ele>183.3087158203125</ele><time>2023-11-09T15:44:55Z</time></trkpt><trkpt lat="54.720157" lon="55.937904"><ele>181.64239501953125</ele><time>2023-11-09T15:45:06Z</time></trkpt><trkpt lat="54.720154" lon="55.937927"><ele>181.6912841796875</ele><time>2023-11-09T15:45:07Z</time></trkpt><trkpt lat="54.720086" lon="55.938073"><ele>179.43157958984375</ele><time>2023-11-09T15:45:15Z</time></trkpt><trkpt lat="54.72007" lon="55.93814"><ele>179.1246337890625</ele><time>2023-11-09T15:45:18Z</time></trkpt><trkpt lat="54.720066" lon="55.938166"><ele>179.14849853515625</ele><time>2023-11-09T15:45:19Z</time></trkpt><trkpt lat="54.720048" lon="55.938258"><ele>179.18939208984375</ele><time>2023-11-09T15:45:23Z</time></trkpt><trkpt lat="54.720025" lon="55.938317"><ele>179.044677734375</ele><time>2023-11-09T15:45:26Z</time></trkpt><trkpt lat="54.719999" lon="55.938328"><ele>178.573974609375</ele><time>2023-11-09T15:45:28Z</time></trkpt><trkpt lat="54.719967" lon="55.938314"><ele>179.3740234375</ele><time>2023-11-09T15:45:30Z</time></trkpt><trkpt lat="54.719955" lon="55.938304"><ele>179.619384765625</ele><time>2023-11-09T15:45:31Z</time></trkpt><trkpt lat="54.719812" lon="55.938244"><ele>179.82733154296875</ele><time>2023-11-09T15:45:41Z</time></trkpt><trkpt lat="54.719799" lon="55.93824"><ele>179.594970703125</ele><time>2023-11-09T15:45:42Z</time></trkpt><trkpt lat="54.71967" lon="55.938172"><ele>178.10687255859375</ele><time>2023-11-09T15:45:52Z</time></trkpt><trkpt lat="54.719662" lon="55.938166"><ele>177.70123291015625</ele><time>2023-11-09T15:45:53Z</time></trkpt><trkpt lat="54.719522" lon="55.938098"><ele>177.55035400390625</ele><time>2023-11-09T15:46:04Z</time></trkpt><trkpt lat="54.719508" lon="55.938094"><ele>177.4488525390625</ele><time>2023-11-09T15:46:05Z</time></trkpt><trkpt lat="54.719424" lon="55.938067"><ele>178.6143798828125</ele><time>2023-11-09T15:46:11Z</time></trkpt><trkpt lat="54.719349" lon="55.938022"><ele>178.80316162109375</ele><time>2023-11-09T15:46:17Z</time></trkpt><trkpt lat="54.719338" lon="55.938015"><ele>178.5601806640625</ele><time>2023-11-09T15:46:18Z</time></trkpt><trkpt lat="54.719216" lon="55.937949"><ele>177.7548828125</ele><time>2023-11-09T15:46:27Z</time></trkpt><trkpt lat="54.719202" lon="55.937945"><ele>177.771728515625</ele><time>2023-11-09T15:46:28Z</time></trkpt><trkpt lat="54.719071" lon="55.937883"><ele>178.610595703125</ele><time>2023-11-09T15:46:37Z</time></trkpt><trkpt lat="54.719055" lon="55.937874"><ele>178.9378662109375</ele><time>2023-11-09T15:46:38Z</time></trkpt><trkpt lat="54.718915" lon="55.937795"><ele>179.25994873046875</ele><time>2023-11-09T15:46:48Z</time></trkpt><trkpt lat="54.7189" lon="55.937788"><ele>179.70013427734375</ele><time>2023-11-09T15:46:49Z</time></trkpt><trkpt lat="54.718793" lon="55.937721"><ele>177.5234375</ele><time>2023-11-09T15:46:58Z</time></trkpt><trkpt lat="54.718736" lon="55.937666"><ele>177.739501953125</ele><time>2023-11-09T15:47:02Z</time></trkpt><trkpt lat="54.718724" lon="55.937653"><ele>177.634521484375</ele><time>2023-11-09T15:47:03Z</time></trkpt><trkpt lat="54.71859" lon="55.93756"><ele>180.190673828125</ele><time>2023-11-09T15:47:12Z</time></trkpt><trkpt lat="54.718576" lon="55.937552"><ele>180.381591796875</ele><time>2023-11-09T15:47:13Z</time></trkpt><trkpt lat="54.718431" lon="55.937468"><ele>184.30218505859375</ele><time>2023-11-09T15:47:22Z</time></trkpt><trkpt lat="54.718416" lon="55.937459"><ele>184.8863525390625</ele><time>2023-11-09T15:47:23Z</time></trkpt><trkpt lat="54.718271" lon="55.937367"><ele>187.72247314453125</ele><time>2023-11-09T15:47:32Z</time></trkpt><trkpt lat="54.718257" lon="55.937357"><ele>187.86932373046875</ele><time>2023-11-09T15:47:33Z</time></trkpt><trkpt lat="54.718119" lon="55.93724"><ele>191.69158935546875</ele><time>2023-11-09T15:47:42Z</time></trkpt><trkpt lat="54.718102" lon="55.937229"><ele>192.03631591796875</ele><time>2023-11-09T15:47:43Z</time></trkpt><trkpt lat="54.718" lon="55.937175"><ele>194.60076904296875</ele><time>2023-11-09T15:47:49Z</time></trkpt><trkpt lat="54.717982" lon="55.937171"><ele>195.43994140625</ele><time>2023-11-09T15:47:50Z</time></trkpt><trkpt lat="54.717939" lon="55.937184"><ele>192.610107421875</ele><time>2023-11-09T15:47:52Z</time></trkpt><trkpt lat="54.71792" lon="55.937194"><ele>191.694580078125</ele><time>2023-11-09T15:47:53Z</time></trkpt><trkpt lat="54.717867" lon="55.937242"><ele>187.394287109375</ele><time>2023-11-09T15:47:57Z</time></trkpt><trkpt lat="54.717787" lon="55.937416"><ele>182.100341796875</ele><time>2023-11-09T15:48:08Z</time></trkpt><trkpt lat="54.717783" lon="55.937442"><ele>181.9141845703125</ele><time>2023-11-09T15:48:09Z</time></trkpt><trkpt lat="54.71777" lon="55.937675"><ele>181.00616455078125</ele><time>2023-11-09T15:48:18Z</time></trkpt><trkpt lat="54.717767" lon="55.9377"><ele>180.86553955078125</ele><time>2023-11-09T15:48:19Z</time></trkpt><trkpt lat="54.717734" lon="55.937973"><ele>181.1324462890625</ele><time>2023-11-09T15:48:40Z</time></trkpt><trkpt lat="54.717731" lon="55.937995"><ele>180.950927734375</ele><time>2023-11-09T15:48:41Z</time></trkpt><trkpt lat="54.717682" lon="55.938255"><ele>179.69158935546875</ele><time>2023-11-09T15:48:55Z</time></trkpt><trkpt lat="54.717679" lon="55.938277"><ele>179.5006103515625</ele><time>2023-11-09T15:48:56Z</time></trkpt><trkpt lat="54.717644" lon="55.938529"><ele>178.60675048828125</ele><time>2023-11-09T15:49:07Z</time></trkpt><trkpt lat="54.717639" lon="55.938553"><ele>178.5279541015625</ele><time>2023-11-09T15:49:08Z</time></trkpt><trkpt lat="54.717606" lon="55.938791"><ele>179.09405517578125</ele><time>2023-11-09T15:49:18Z</time></trkpt><trkpt lat="54.717602" lon="55.938816"><ele>178.73736572265625</ele><time>2023-11-09T15:49:19Z</time></trkpt><trkpt lat="54.717572" lon="55.939039"><ele>176.8280029296875</ele><time>2023-11-09T15:49:28Z</time></trkpt><trkpt lat="54.717569" lon="55.939064"><ele>176.5771484375</ele><time>2023-11-09T15:49:29Z</time></trkpt><trkpt lat="54.717533" lon="55.939288"><ele>175.629638671875</ele><time>2023-11-09T15:49:38Z</time></trkpt><trkpt lat="54.717528" lon="55.939311"><ele>175.50994873046875</ele><time>2023-11-09T15:49:39Z</time></trkpt><trkpt lat="54.717491" lon="55.939564"><ele>176.3970947265625</ele><time>2023-11-09T15:49:49Z</time></trkpt><trkpt lat="54.717489" lon="55.939589"><ele>176.815673828125</ele><time>2023-11-09T15:49:50Z</time></trkpt><trkpt lat="54.71747" lon="55.939814"><ele>177.65753173828125</ele><time>2023-11-09T15:49:59Z</time></trkpt><trkpt lat="54.717467" lon="55.939839"><ele>177.451171875</ele><time>2023-11-09T15:50:00Z</time></trkpt><trkpt lat="54.717434" lon="55.940064"><ele>177.0177001953125</ele><time>2023-11-09T15:50:09Z</time></trkpt><trkpt lat="54.717431" lon="55.940089"><ele>177.1710205078125</ele><time>2023-11-09T15:50:10Z</time></trkpt><trkpt lat="54.717395" lon="55.940344"><ele>178.0723876953125</ele><time>2023-11-09T15:50:20Z</time></trkpt><trkpt lat="54.717391" lon="55.940367"><ele>178.09765625</ele><time>2023-11-09T15:50:21Z</time></trkpt><trkpt lat="54.717353" lon="55.940599"><ele>179.4285888671875</ele><time>2023-11-09T15:50:30Z</time></trkpt><trkpt lat="54.717349" lon="55.940621"><ele>179.1107177734375</ele><time>2023-11-09T15:50:31Z</time></trkpt><trkpt lat="54.717306" lon="55.94089"><ele>177.9610595703125</ele><time>2023-11-09T15:50:43Z</time></trkpt><trkpt lat="54.717302" lon="55.940913"><ele>177.41748046875</ele><time>2023-11-09T15:50:44Z</time></trkpt><trkpt lat="54.717265" lon="55.94115"><ele>176.8621826171875</ele><time>2023-11-09T15:50:54Z</time></trkpt><trkpt lat="54.717264" lon="55.941169"><ele>177.2210693359375</ele><time>2023-11-09T15:50:55Z</time></trkpt><trkpt lat="54.717229" lon="55.941422"><ele>177.94805908203125</ele><time>2023-11-09T15:51:05Z</time></trkpt><trkpt lat="54.717225" lon="55.94145"><ele>177.92919921875</ele><time>2023-11-09T15:51:06Z</time></trkpt><trkpt lat="54.717171" lon="55.941701"><ele>175.3189697265625</ele><time>2023-11-09T15:51:16Z</time></trkpt><trkpt lat="54.717167" lon="55.941724"><ele>175.2174072265625</ele><time>2023-11-09T15:51:17Z</time></trkpt><trkpt lat="54.717135" lon="55.941965"><ele>171.6060791015625</ele><time>2023-11-09T15:51:27Z</time></trkpt><trkpt lat="54.717132" lon="55.941987"><ele>171.6563720703125</ele><time>2023-11-09T15:51:28Z</time></trkpt><trkpt lat="54.717083" lon="55.942222"><ele>170.75909423828125</ele><time>2023-11-09T15:51:38Z</time></trkpt><trkpt lat="54.71708" lon="55.942245"><ele>170.76177978515625</ele><time>2023-11-09T15:51:39Z</time></trkpt><trkpt lat="54.717047" lon="55.942475"><ele>170.36865234375</ele><time>2023-11-09T15:51:48Z</time></trkpt><trkpt lat="54.717043" lon="55.942501"><ele>170.4744873046875</ele><time>2023-11-09T15:51:49Z</time></trkpt><trkpt lat="54.717006" lon="55.942771"><ele>169.3218994140625</ele><time>2023-11-09T15:52:02Z</time></trkpt><trkpt lat="54.717003" lon="55.942797"><ele>169.1102294921875</ele><time>2023-11-09T15:52:03Z</time></trkpt><trkpt lat="54.716971" lon="55.943066"><ele>165.71124267578125</ele><time>2023-11-09T15:52:14Z</time></trkpt><trkpt lat="54.716965" lon="55.943088"><ele>165.63427734375</ele><time>2023-11-09T15:52:15Z</time></trkpt><trkpt lat="54.716924" lon="55.943304"><ele>164.90863037109375</ele><time>2023-11-09T15:52:24Z</time></trkpt><trkpt lat="54.71692" lon="55.943328"><ele>164.871337890625</ele><time>2023-11-09T15:52:25Z</time></trkpt><trkpt lat="54.716873" lon="55.943595"><ele>163.3594970703125</ele><time>2023-11-09T15:52:38Z</time></trkpt><trkpt lat="54.716869" lon="55.94362"><ele>163.2935791015625</ele><time>2023-11-09T15:52:39Z</time></trkpt><trkpt lat="54.71683" lon="55.943886"><ele>163.0382080078125</ele><time>2023-11-09T15:52:50Z</time></trkpt><trkpt lat="54.716828" lon="55.943912"><ele>163.3814697265625</ele><time>2023-11-09T15:52:51Z</time></trkpt><trkpt lat="54.716789" lon="55.944165"><ele>161.379150390625</ele><time>2023-11-09T15:53:02Z</time></trkpt><trkpt lat="54.716784" lon="55.94419"><ele>160.70599365234375</ele><time>2023-11-09T15:53:03Z</time></trkpt><trkpt lat="54.716745" lon="55.944423"><ele>159.491943359375</ele><time>2023-11-09T15:53:13Z</time></trkpt><trkpt lat="54.716741" lon="55.944446"><ele>159.38580322265625</ele><time>2023-11-09T15:53:14Z</time></trkpt><trkpt lat="54.716701" lon="55.944663"><ele>158.03192138671875</ele><time>2023-11-09T15:53:23Z</time></trkpt><trkpt lat="54.716696" lon="55.944691"><ele>158.177978515625</ele><time>2023-11-09T15:53:24Z</time></trkpt><trkpt lat="54.716658" lon="55.944932"><ele>157.25531005859375</ele><time>2023-11-09T15:53:34Z</time></trkpt><trkpt lat="54.716654" lon="55.94495"><ele>156.9742431640625</ele><time>2023-11-09T15:53:35Z</time></trkpt><trkpt lat="54.716615" lon="55.945223"><ele>155.61810302734375</ele><time>2023-11-09T15:53:47Z</time></trkpt><trkpt lat="54.71661" lon="55.945248"><ele>156.2554931640625</ele><time>2023-11-09T15:53:48Z</time></trkpt><trkpt lat="54.716577" lon="55.945469"><ele>155.97607421875</ele><time>2023-11-09T15:53:57Z</time></trkpt><trkpt lat="54.716571" lon="55.945496"><ele>155.3907470703125</ele><time>2023-11-09T15:53:58Z</time></trkpt><trkpt lat="54.716536" lon="55.945737"><ele>156.36553955078125</ele><time>2023-11-09T15:54:08Z</time></trkpt><trkpt lat="54.716531" lon="55.945765"><ele>156.8299560546875</ele><time>2023-11-09T15:54:09Z</time></trkpt><trkpt lat="54.716496" lon="55.94599"><ele>155.5572509765625</ele><time>2023-11-09T15:54:18Z</time></trkpt><trkpt lat="54.716495" lon="55.946013"><ele>155.182861328125</ele><time>2023-11-09T15:54:19Z</time></trkpt><trkpt lat="54.716461" lon="55.946253"><ele>153.02252197265625</ele><time>2023-11-09T15:54:29Z</time></trkpt><trkpt lat="54.716458" lon="55.946275"><ele>152.853759765625</ele><time>2023-11-09T15:54:30Z</time></trkpt><trkpt lat="54.716427" lon="55.9465"><ele>152.54058837890625</ele><time>2023-11-09T15:54:39Z</time></trkpt><trkpt lat="54.716423" lon="55.94652"><ele>152.166748046875</ele><time>2023-11-09T15:54:40Z</time></trkpt><trkpt lat="54.716376" lon="55.946768"><ele>153.45318603515625</ele><time>2023-11-09T15:54:50Z</time></trkpt><trkpt lat="54.716371" lon="55.946793"><ele>152.9691162109375</ele><time>2023-11-09T15:54:51Z</time></trkpt><trkpt lat="54.716325" lon="55.94703"><ele>152.158935546875</ele><time>2023-11-09T15:55:00Z</time></trkpt><trkpt lat="54.716322" lon="55.947054"><ele>152.0606689453125</ele><time>2023-11-09T15:55:01Z</time></trkpt><trkpt lat="54.716287" lon="55.94736"><ele>149.8740234375</ele><time>2023-11-09T15:55:14Z</time></trkpt><trkpt lat="54.716283" lon="55.947386"><ele>149.03253173828125</ele><time>2023-11-09T15:55:15Z</time></trkpt><trkpt lat="54.716245" lon="55.947598"><ele>146.3792724609375</ele><time>2023-11-09T15:55:24Z</time></trkpt><trkpt lat="54.716241" lon="55.947619"><ele>146.11346435546875</ele><time>2023-11-09T15:55:25Z</time></trkpt><trkpt lat="54.716193" lon="55.947854"><ele>147.4208984375</ele><time>2023-11-09T15:55:34Z</time></trkpt><trkpt lat="54.716187" lon="55.947884"><ele>147.8848876953125</ele><time>2023-11-09T15:55:35Z</time></trkpt><trkpt lat="54.716139" lon="55.948126"><ele>149.71142578125</ele><time>2023-11-09T15:55:44Z</time></trkpt><trkpt lat="54.716135" lon="55.94815"><ele>150.2255859375</ele><time>2023-11-09T15:55:45Z</time></trkpt><trkpt lat="54.716117" lon="55.94828"><ele>150.5281982421875</ele><time>2023-11-09T15:55:51Z</time></trkpt><trkpt lat="54.71608" lon="55.948426"><ele>151.4808349609375</ele><time>2023-11-09T15:55:57Z</time></trkpt><trkpt lat="54.716073" lon="55.948454"><ele>151.0697021484375</ele><time>2023-11-09T15:55:58Z</time></trkpt><trkpt lat="54.716022" lon="55.948683"><ele>150.50830078125</ele><time>2023-11-09T15:56:08Z</time></trkpt><trkpt lat="54.716018" lon="55.948706"><ele>150.1856689453125</ele><time>2023-11-09T15:56:09Z</time></trkpt><trkpt lat="54.715955" lon="55.94896"><ele>147.327392578125</ele><time>2023-11-09T15:56:30Z</time></trkpt><trkpt lat="54.715949" lon="55.948987"><ele>147.08349609375</ele><time>2023-11-09T15:56:31Z</time></trkpt><trkpt lat="54.715894" lon="55.94924"><ele>146.82989501953125</ele><time>2023-11-09T15:56:42Z</time></trkpt><trkpt lat="54.715889" lon="55.949261"><ele>146.42999267578125</ele><time>2023-11-09T15:56:43Z</time></trkpt><trkpt lat="54.715822" lon="55.949508"><ele>147.32586669921875</ele><time>2023-11-09T15:56:53Z</time></trkpt><trkpt lat="54.715817" lon="55.949534"><ele>147.359619140625</ele><time>2023-11-09T15:56:54Z</time></trkpt><trkpt lat="54.71577" lon="55.949757"><ele>149.095703125</ele><time>2023-11-09T15:57:03Z</time></trkpt><trkpt lat="54.715766" lon="55.94978"><ele>149.0069580078125</ele><time>2023-11-09T15:57:04Z</time></trkpt><trkpt lat="54.715721" lon="55.949992"><ele>146.8824462890625</ele><time>2023-11-09T15:57:13Z</time></trkpt><trkpt lat="54.715716" lon="55.950015"><ele>147.04571533203125</ele><time>2023-11-09T15:57:14Z</time></trkpt><trkpt lat="54.71566" lon="55.950241"><ele>145.861083984375</ele><time>2023-11-09T15:57:24Z</time></trkpt><trkpt lat="54.715656" lon="55.950265"><ele>145.93359375</ele><time>2023-11-09T15:57:25Z</time></trkpt><trkpt lat="54.715594" lon="55.950491"><ele>144.0850830078125</ele><time>2023-11-09T15:57:34Z</time></trkpt><trkpt lat="54.715587" lon="55.950514"><ele>144.20599365234375</ele><time>2023-11-09T15:57:35Z</time></trkpt><trkpt lat="54.715529" lon="55.950763"><ele>145.8175048828125</ele><time>2023-11-09T15:57:46Z</time></trkpt><trkpt lat="54.715524" lon="55.950788"><ele>146.1070556640625</ele><time>2023-11-09T15:57:47Z</time></trkpt><trkpt lat="54.715479" lon="55.951013"><ele>144.7860107421875</ele><time>2023-11-09T15:57:56Z</time></trkpt><trkpt lat="54.715473" lon="55.951038"><ele>144.92919921875</ele><time>2023-11-09T15:57:57Z</time></trkpt><trkpt lat="54.715451" lon="55.951121"><ele>144.3388671875</ele><time>2023-11-09T15:58:01Z</time></trkpt><trkpt lat="54.715449" lon="55.951209"><ele>143.31500244140625</ele><time>2023-11-09T15:58:05Z</time></trkpt><trkpt lat="54.715428" lon="55.951303"><ele>141.9007568359375</ele><time>2023-11-09T15:58:09Z</time></trkpt><trkpt lat="54.715421" lon="55.951328"><ele>142.47357177734375</ele><time>2023-11-09T15:58:10Z</time></trkpt><trkpt lat="54.715365" lon="55.951579"><ele>142.3487548828125</ele><time>2023-11-09T15:58:20Z</time></trkpt><trkpt lat="54.715361" lon="55.951603"><ele>141.92266845703125</ele><time>2023-11-09T15:58:21Z</time></trkpt><trkpt lat="54.715349" lon="55.951694"><ele>140.81903076171875</ele><time>2023-11-09T15:58:25Z</time></trkpt><trkpt lat="54.715305" lon="55.951858"><ele>141.531005859375</ele><time>2023-11-09T15:58:32Z</time></trkpt><trkpt lat="54.715299" lon="55.951883"><ele>141.265625</ele><time>2023-11-09T15:58:33Z</time></trkpt><trkpt lat="54.715245" lon="55.952056"><ele>140.20489501953125</ele><time>2023-11-09T15:58:40Z</time></trkpt><trkpt lat="54.715231" lon="55.952145"><ele>139.88848876953125</ele><time>2023-11-09T15:58:44Z</time></trkpt><trkpt lat="54.715225" lon="55.952165"><ele>139.302734375</ele><time>2023-11-09T15:58:45Z</time></trkpt><trkpt lat="54.7152" lon="55.952202"><ele>138.265625</ele><time>2023-11-09T15:58:50Z</time></trkpt></trkseg></trk></gpx>